start=new Date('2021-09-12T00:00:00.000Z').valueOf();
sats=[{"CENTER_NAME":"EARTH","APOAPSIS":"548.319","SITE":"AFETR","EPOCH":"2021-09-11T22:00:00.999936","MEAN_MOTION":"15.06378365","NORAD_CAT_ID":"48293","REF_FRAME":"TEME","REV_AT_EPOCH":"359","ARG_OF_PERICENTER":"61.7215","OBJECT_NAME":"STARLINK-2550","GP_ID":"184535959","TIME_SYSTEM":"UTC","MEAN_MOTION_DDOT":"0.0000000000000","MEAN_ANOMALY":"223.1997","CLASSIFICATION_TYPE":"U","PERIOD":"95.594","ELEMENT_SET_NO":"999","RA_OF_ASC_NODE":"242.8379","RCS_SIZE":"LARGE","DECAY_DATE":null,"COUNTRY_CODE":"US","INCLINATION":"53.0539","EPHEMERIS_TYPE":"0","BSTAR":"0.00227060000000","OBJECT_TYPE":"PAYLOAD","MEAN_ELEMENT_THEORY":"SGP4","PERIAPSIS":"546.240","TLE_LINE2":"2 48293  53.0539 242.8379 0001501  61.7215 223.1997 15.06378365  3591","OBJECT_ID":"2021-036T","LAUNCH_DATE":"2021-04-29","MEAN_MOTION_DOT":"0.00033681","FILE":"3113379","TLE_LINE1":"1 48293U 21036T   21254.91667824  .00033681  00000-0  22706-2 0  9995","SEMIMAJOR_AXIS":"6925.415","ECCENTRICITY":"0.00015010"},{"CENTER_NAME":"EARTH","APOAPSIS":"548.413","SITE":"AFETR","NORAD_CAT_ID":"48294","EPOCH":"2021-09-11T22:00:00.999936","MEAN_MOTION":"15.06389268","REF_FRAME":"TEME","REV_AT_EPOCH":"359","OBJECT_NAME":"STARLINK-2533","ARG_OF_PERICENTER":"75.6940","MEAN_ANOMALY":"229.1952","GP_ID":"184534208","MEAN_MOTION_DDOT":"0.0000000000000","TIME_SYSTEM":"UTC","PERIOD":"95.593","CLASSIFICATION_TYPE":"U","ELEMENT_SET_NO":"999","RA_OF_ASC_NODE":"242.8433","RCS_SIZE":"LARGE","DECAY_DATE":null,"COUNTRY_CODE":"US","BSTAR":"0.00237410000000","EPHEMERIS_TYPE":"0","INCLINATION":"53.0561","OBJECT_TYPE":"PAYLOAD","MEAN_ELEMENT_THEORY":"SGP4","PERIAPSIS":"546.080","TLE_LINE2":"2 48294  53.0561 242.8433 0001684  75.6940 229.1952 15.06389268  3590","LAUNCH_DATE":"2021-04-29","OBJECT_ID":"2021-036U","MEAN_MOTION_DOT":"0.00035248","FILE":"3113379","ECCENTRICITY":"0.00016840","TLE_LINE1":"1 48294U 21036U   21254.91667824  .00035248  00000-0  23741-2 0  9997","SEMIMAJOR_AXIS":"6925.381"},{"LAUNCH_DATE":"2021-04-29","OBJECT_ID":"2021-036V","MEAN_MOTION_DOT":"0.00036637","FILE":"3113379","SEMIMAJOR_AXIS":"6925.394","TLE_LINE1":"1 48295U 21036V   21254.91667824  .00036637  00000-0  24667-2 0  9999","ECCENTRICITY":"0.00013990","COUNTRY_CODE":"US","DECAY_DATE":null,"INCLINATION":"53.0563","EPHEMERIS_TYPE":"0","BSTAR":"0.00246670000000","RA_OF_ASC_NODE":"242.8446","RCS_SIZE":"LARGE","TLE_LINE2":"2 48295  53.0563 242.8446 0001399  67.2953 257.5625 15.06385119  3594","PERIAPSIS":"546.290","MEAN_ELEMENT_THEORY":"SGP4","OBJECT_TYPE":"PAYLOAD","GP_ID":"184534458","TIME_SYSTEM":"UTC","MEAN_MOTION_DDOT":"0.0000000000000","MEAN_ANOMALY":"257.5625","REV_AT_EPOCH":"359","ARG_OF_PERICENTER":"67.2953","OBJECT_NAME":"STARLINK-2535","ELEMENT_SET_NO":"999","CLASSIFICATION_TYPE":"U","PERIOD":"95.593","CENTER_NAME":"EARTH","REF_FRAME":"TEME","SITE":"AFETR","APOAPSIS":"548.228","MEAN_MOTION":"15.06385119","EPOCH":"2021-09-11T22:00:00.999936","NORAD_CAT_ID":"48295"},{"REV_AT_EPOCH":"359","OBJECT_NAME":"STARLINK-2546","ARG_OF_PERICENTER":"73.2132","MEAN_ANOMALY":"271.6160","TIME_SYSTEM":"UTC","GP_ID":"184535709","MEAN_MOTION_DDOT":"0.0000000000000","PERIOD":"95.593","CLASSIFICATION_TYPE":"U","ELEMENT_SET_NO":"999","CENTER_NAME":"EARTH","APOAPSIS":"548.442","SITE":"AFETR","NORAD_CAT_ID":"48296","MEAN_MOTION":"15.06384009","EPOCH":"2021-09-11T22:00:00.999936","REF_FRAME":"TEME","LAUNCH_DATE":"2021-04-29","OBJECT_ID":"2021-036W","MEAN_MOTION_DOT":"0.00037554","FILE":"3113379","TLE_LINE1":"1 48296U 21036W   21254.91667824  .00037554  00000-0  25277-2 0  9997","ECCENTRICITY":"0.00017030","SEMIMAJOR_AXIS":"6925.398","RA_OF_ASC_NODE":"242.8447","RCS_SIZE":"LARGE","COUNTRY_CODE":"US","DECAY_DATE":null,"BSTAR":"0.00252770000000","INCLINATION":"53.0552","EPHEMERIS_TYPE":"0","MEAN_ELEMENT_THEORY":"SGP4","OBJECT_TYPE":"PAYLOAD","TLE_LINE2":"2 48296  53.0552 242.8447 0001703  73.2132 271.6160 15.06384009  3597","PERIAPSIS":"546.083"},{"MEAN_MOTION_DOT":"0.00025934","OBJECT_ID":"2021-036X","LAUNCH_DATE":"2021-04-29","TLE_LINE1":"1 48297U 21036X   21254.91667824  .00025934  00000-0  17536-2 0  9996","SEMIMAJOR_AXIS":"6925.352","ECCENTRICITY":"0.00013610","FILE":"3113379","RCS_SIZE":"LARGE","RA_OF_ASC_NODE":"242.8451","EPHEMERIS_TYPE":"0","INCLINATION":"53.0552","BSTAR":"0.00175360000000","COUNTRY_CODE":"US","DECAY_DATE":null,"OBJECT_TYPE":"PAYLOAD","MEAN_ELEMENT_THEORY":"SGP4","PERIAPSIS":"546.275","TLE_LINE2":"2 48297  53.0552 242.8451 0001361  68.5517 296.3570 15.06398802  3604","ARG_OF_PERICENTER":"68.5517","OBJECT_NAME":"STARLINK-2544","REV_AT_EPOCH":"360","MEAN_MOTION_DDOT":"0.0000000000000","GP_ID":"184535460","TIME_SYSTEM":"UTC","MEAN_ANOMALY":"296.3570","CLASSIFICATION_TYPE":"U","PERIOD":"95.592","ELEMENT_SET_NO":"999","CENTER_NAME":"EARTH","EPOCH":"2021-09-11T22:00:00.999936","MEAN_MOTION":"15.06398802","NORAD_CAT_ID":"48297","APOAPSIS":"548.160","SITE":"AFETR","REF_FRAME":"TEME"},{"MEAN_ELEMENT_THEORY":"SGP4","OBJECT_TYPE":"PAYLOAD","TLE_LINE2":"2 48298  53.0549 242.8444 0001411  66.5001 318.4072 15.06389885  3609","PERIAPSIS":"546.267","RCS_SIZE":"LARGE","RA_OF_ASC_NODE":"242.8444","BSTAR":"0.00255620000000","EPHEMERIS_TYPE":"0","INCLINATION":"53.0549","COUNTRY_CODE":"US","DECAY_DATE":null,"TLE_LINE1":"1 48298U 21036Y   21254.91667824  .00037988  00000-0  25562-2 0  9997","ECCENTRICITY":"0.00014110","SEMIMAJOR_AXIS":"6925.380","FILE":"3113379","MEAN_MOTION_DOT":"0.00037988","LAUNCH_DATE":"2021-04-29","OBJECT_ID":"2021-036Y","NORAD_CAT_ID":"48298","EPOCH":"2021-09-11T22:00:00.999936","MEAN_MOTION":"15.06389885","SITE":"AFETR","APOAPSIS":"548.222","REF_FRAME":"TEME","CENTER_NAME":"EARTH","PERIOD":"95.593","CLASSIFICATION_TYPE":"U","ELEMENT_SET_NO":"999","OBJECT_NAME":"STARLINK-2559","ARG_OF_PERICENTER":"66.5001","REV_AT_EPOCH":"360","MEAN_ANOMALY":"318.4072","MEAN_MOTION_DDOT":"0.0000000000000","GP_ID":"184534708","TIME_SYSTEM":"UTC"},{"ELEMENT_SET_NO":"999","PERIOD":"95.594","CLASSIFICATION_TYPE":"U","MEAN_ANOMALY":"334.8001","TIME_SYSTEM":"UTC","GP_ID":"184534958","MEAN_MOTION_DDOT":"0.0000000000000","OBJECT_NAME":"STARLINK-2557","ARG_OF_PERICENTER":"70.1235","REV_AT_EPOCH":"359","REF_FRAME":"TEME","NORAD_CAT_ID":"48299","EPOCH":"2021-09-11T22:00:00.999936","MEAN_MOTION":"15.06371191","SITE":"AFETR","APOAPSIS":"548.494","CENTER_NAME":"EARTH","TLE_LINE1":"1 48299U 21036Z   21254.91667824  .00037234  00000-0  25073-2 0  9999","ECCENTRICITY":"0.00017220","SEMIMAJOR_AXIS":"6925.437","FILE":"3113379","MEAN_MOTION_DOT":"0.00037234","OBJECT_ID":"2021-036Z","LAUNCH_DATE":"2021-04-29","TLE_LINE2":"2 48299  53.0537 242.8241 0001722  70.1235 334.8001 15.06371191  3590","PERIAPSIS":"546.109","MEAN_ELEMENT_THEORY":"SGP4","OBJECT_TYPE":"PAYLOAD","BSTAR":"0.00250730000000","EPHEMERIS_TYPE":"0","INCLINATION":"53.0537","DECAY_DATE":null,"COUNTRY_CODE":"US","RCS_SIZE":"LARGE","RA_OF_ASC_NODE":"242.8241"},{"TLE_LINE1":"1 48300U 21036AA  21254.30300893 -.00001094  00000-0 -54564-4 0  9991","SEMIMAJOR_AXIS":"6925.359","ECCENTRICITY":"0.00004240","FILE":"3113181","MEAN_MOTION_DOT":"-0.00001094","LAUNCH_DATE":"2021-04-29","OBJECT_ID":"2021-036AA","MEAN_ELEMENT_THEORY":"SGP4","OBJECT_TYPE":"PAYLOAD","TLE_LINE2":"2 48300  53.0621 255.5724 0000424  48.9961 311.1065 15.06396560 20933","PERIAPSIS":"546.930","RCS_SIZE":"LARGE","RA_OF_ASC_NODE":"255.5724","BSTAR":"-0.00005456400000","INCLINATION":"53.0621","EPHEMERIS_TYPE":"0","COUNTRY_CODE":"US","DECAY_DATE":null,"PERIOD":"95.592","CLASSIFICATION_TYPE":"U","ELEMENT_SET_NO":"999","OBJECT_NAME":"STARLINK-2538","ARG_OF_PERICENTER":"48.9961","REV_AT_EPOCH":"2093","MEAN_ANOMALY":"311.1065","TIME_SYSTEM":"UTC","GP_ID":"184508104","MEAN_MOTION_DDOT":"0.0000000000000","NORAD_CAT_ID":"48300","MEAN_MOTION":"15.06396560","EPOCH":"2021-09-11T07:16:19.971552","SITE":"AFETR","APOAPSIS":"547.518","REF_FRAME":"TEME","CENTER_NAME":"EARTH"},{"CLASSIFICATION_TYPE":"U","PERIOD":"95.593","ELEMENT_SET_NO":"999","REV_AT_EPOCH":"2095","ARG_OF_PERICENTER":"51.1411","OBJECT_NAME":"STARLINK-2537","TIME_SYSTEM":"UTC","GP_ID":"184535960","MEAN_MOTION_DDOT":"0.0000000000000","MEAN_ANOMALY":"308.9630","SITE":"AFETR","APOAPSIS":"547.642","MEAN_MOTION":"15.06391798","EPOCH":"2021-09-11T11:57:38.577024","NORAD_CAT_ID":"48301","REF_FRAME":"TEME","CENTER_NAME":"EARTH","FILE":"3113379","SEMIMAJOR_AXIS":"6925.374","TLE_LINE1":"1 48301U 21036AB  21254.49836316  .00000250  00000-0  35693-4 0  9999","ECCENTRICITY":"0.00005820","LAUNCH_DATE":"2021-04-29","OBJECT_ID":"2021-036AB","MEAN_MOTION_DOT":"0.00000250","MEAN_ELEMENT_THEORY":"SGP4","OBJECT_TYPE":"PAYLOAD","PERIAPSIS":"546.836","TLE_LINE2":"2 48301  53.0508 254.7272 0000582  51.1411 308.9630 15.06391798 20950","RA_OF_ASC_NODE":"254.7272","RCS_SIZE":"LARGE","COUNTRY_CODE":"US","DECAY_DATE":null,"INCLINATION":"53.0508","EPHEMERIS_TYPE":"0","BSTAR":"0.00003569300000"},{"RCS_SIZE":"LARGE","RA_OF_ASC_NODE":"255.0282","BSTAR":"0.00008668000000","EPHEMERIS_TYPE":"0","INCLINATION":"53.0533","DECAY_DATE":null,"COUNTRY_CODE":"US","MEAN_ELEMENT_THEORY":"SGP4","OBJECT_TYPE":"PAYLOAD","TLE_LINE2":"2 48302  53.0533 255.0282 0000746  63.1261 296.9804 15.06402898 20944","PERIAPSIS":"546.688","MEAN_MOTION_DOT":"0.00001010","OBJECT_ID":"2021-036AC","LAUNCH_DATE":"2021-04-29","TLE_LINE1":"1 48302U 21036AC  21254.42832271  .00001010  00000-0  86680-4 0  9996","SEMIMAJOR_AXIS":"6925.340","ECCENTRICITY":"0.00007460","FILE":"3113181","CENTER_NAME":"EARTH","NORAD_CAT_ID":"48302","MEAN_MOTION":"15.06402898","EPOCH":"2021-09-11T10:16:47.082144","APOAPSIS":"547.721","SITE":"AFETR","REF_FRAME":"TEME","OBJECT_NAME":"STARLINK-2556","ARG_OF_PERICENTER":"63.1261","REV_AT_EPOCH":"2094","MEAN_ANOMALY":"296.9804","GP_ID":"184508600","TIME_SYSTEM":"UTC","MEAN_MOTION_DDOT":"0.0000000000000","PERIOD":"95.592","CLASSIFICATION_TYPE":"U","ELEMENT_SET_NO":"999"}];
